start=new Date('2022-12-12T00:00:00.000Z').valueOf();
sats=[{"REF_FRAME":"TEME","INCLINATION":"97.6569","CENTER_NAME":"EARTH","PERIAPSIS":"561.878","ECCENTRICITY":"0.00016220","OBJECT_NAME":"STARLINK-4426","SITE":"AFWTR","TLE_LINE2":"2 53484  97.6569 104.5864 0001622  13.5244 346.6023 15.01262628 18361","MEAN_MOTION":"15.01262628","ELEMENT_SET_NO":"999","APOAPSIS":"564.130","EPHEMERIS_TYPE":"0","OBJECT_ID":"2022-099V","TIME_SYSTEM":"UTC","TLE_LINE1":"1 53484U 22099V   22345.82231539  .00006542  00000-0  51342-3 0  9990","ARG_OF_PERICENTER":"13.5244","REV_AT_EPOCH":"1836","RCS_SIZE":"LARGE","MEAN_ANOMALY":"346.6023","RA_OF_ASC_NODE":"104.5864","COUNTRY_CODE":"US","PERIOD":"95.919","MEAN_MOTION_DOT":"0.00006542","NORAD_CAT_ID":"53484","SEMIMAJOR_AXIS":"6941.139","CLASSIFICATION_TYPE":"U","OBJECT_TYPE":"PAYLOAD","MEAN_ELEMENT_THEORY":"SGP4","FILE":"3691993","DECAY_DATE":null,"BSTAR":"0.00051342000000","LAUNCH_DATE":"2022-08-12","MEAN_MOTION_DDOT":"0.0000000000000","EPOCH":"2022-12-11T19:44:08.049696","GP_ID":"220100831"},{"SEMIMAJOR_AXIS":"6941.171","CLASSIFICATION_TYPE":"U","OBJECT_TYPE":"PAYLOAD","MEAN_ELEMENT_THEORY":"SGP4","FILE":"3691889","DECAY_DATE":null,"EPOCH":"2022-12-11T21:12:07.026624","LAUNCH_DATE":"2022-08-12","MEAN_MOTION_DDOT":"0.0000000000000","BSTAR":"0.00031507000000","GP_ID":"220072530","REV_AT_EPOCH":"1861","ARG_OF_PERICENTER":"349.4902","RCS_SIZE":"LARGE","MEAN_ANOMALY":"10.6282","RA_OF_ASC_NODE":"104.6504","PERIOD":"95.920","COUNTRY_CODE":"US","MEAN_MOTION_DOT":"0.00003989","NORAD_CAT_ID":"53485","SITE":"AFWTR","TLE_LINE2":"2 53485  97.6563 104.6504 0001900 349.4902  10.6282 15.01252045 18614","MEAN_MOTION":"15.01252045","ELEMENT_SET_NO":"999","APOAPSIS":"564.355","EPHEMERIS_TYPE":"0","OBJECT_ID":"2022-099W","TIME_SYSTEM":"UTC","TLE_LINE1":"1 53485U 22099W   22345.88341466  .00003989  00000-0  31507-3 0  9991","REF_FRAME":"TEME","INCLINATION":"97.6563","CENTER_NAME":"EARTH","PERIAPSIS":"561.718","ECCENTRICITY":"0.00019000","OBJECT_NAME":"STARLINK-4430"},{"SITE":"AFWTR","TLE_LINE2":"2 53486  97.6560 104.5866 0001870  30.5617 329.5715 15.01250040 18367","MEAN_MOTION":"15.01250040","APOAPSIS":"564.341","ELEMENT_SET_NO":"999","EPHEMERIS_TYPE":"0","OBJECT_ID":"2022-099X","TIME_SYSTEM":"UTC","TLE_LINE1":"1 53486U 22099X   22345.82047656  .00006586  00000-0  51702-3 0  9995","REF_FRAME":"TEME","INCLINATION":"97.6560","CENTER_NAME":"EARTH","ECCENTRICITY":"0.00018700","PERIAPSIS":"561.745","OBJECT_NAME":"STARLINK-4431","CLASSIFICATION_TYPE":"U","SEMIMAJOR_AXIS":"6941.178","OBJECT_TYPE":"PAYLOAD","MEAN_ELEMENT_THEORY":"SGP4","FILE":"3691993","DECAY_DATE":null,"EPOCH":"2022-12-11T19:41:29.174784","LAUNCH_DATE":"2022-08-12","MEAN_MOTION_DDOT":"0.0000000000000","BSTAR":"0.00051702000000","GP_ID":"220099330","ARG_OF_PERICENTER":"30.5617","REV_AT_EPOCH":"1836","RCS_SIZE":"LARGE","MEAN_ANOMALY":"329.5715","RA_OF_ASC_NODE":"104.5866","PERIOD":"95.920","COUNTRY_CODE":"US","MEAN_MOTION_DOT":"0.00006586","NORAD_CAT_ID":"53486"},{"TLE_LINE1":"1 53487U 22099Y   22345.87970992  .00002704  00000-0  21497-3 0  9995","OBJECT_ID":"2022-099Y","TIME_SYSTEM":"UTC","TLE_LINE2":"2 53487  97.6575 104.6509 0002731 351.8797   8.2383 15.01277198 18617","SITE":"AFWTR","EPHEMERIS_TYPE":"0","MEAN_MOTION":"15.01277198","ELEMENT_SET_NO":"999","APOAPSIS":"564.854","PERIAPSIS":"561.063","ECCENTRICITY":"0.00027310","OBJECT_NAME":"STARLINK-4432","REF_FRAME":"TEME","INCLINATION":"97.6575","CENTER_NAME":"EARTH","GP_ID":"220072533","LAUNCH_DATE":"2022-08-12","MEAN_MOTION_DDOT":"0.0000000000000","EPOCH":"2022-12-11T21:06:46.937088","BSTAR":"0.00021497000000","OBJECT_TYPE":"PAYLOAD","SEMIMAJOR_AXIS":"6941.094","CLASSIFICATION_TYPE":"U","FILE":"3691889","DECAY_DATE":null,"MEAN_ELEMENT_THEORY":"SGP4","RA_OF_ASC_NODE":"104.6509","NORAD_CAT_ID":"53487","MEAN_MOTION_DOT":"0.00002704","PERIOD":"95.918","COUNTRY_CODE":"US","RCS_SIZE":"LARGE","REV_AT_EPOCH":"1861","ARG_OF_PERICENTER":"351.8797","MEAN_ANOMALY":"8.2383"},{"ELEMENT_SET_NO":"999","APOAPSIS":"564.219","MEAN_MOTION":"15.01256008","EPHEMERIS_TYPE":"0","SITE":"AFWTR","TLE_LINE2":"2 53488  97.6565 104.5892 0001721   5.4972 354.6271 15.01256008 18369","TIME_SYSTEM":"UTC","OBJECT_ID":"2022-099Z","TLE_LINE1":"1 53488U 22099Z   22345.81861933  .00005129  00000-0  40363-3 0  9991","CENTER_NAME":"EARTH","INCLINATION":"97.6565","REF_FRAME":"TEME","OBJECT_NAME":"STARLINK-4421","PERIAPSIS":"561.830","ECCENTRICITY":"0.00017210","MEAN_ELEMENT_THEORY":"SGP4","DECAY_DATE":null,"FILE":"3691993","CLASSIFICATION_TYPE":"U","SEMIMAJOR_AXIS":"6941.159","OBJECT_TYPE":"PAYLOAD","MEAN_MOTION_DDOT":"0.0000000000000","LAUNCH_DATE":"2022-08-12","EPOCH":"2022-12-11T19:38:48.710112","BSTAR":"0.00040363000000","GP_ID":"220100332","MEAN_ANOMALY":"354.6271","REV_AT_EPOCH":"1836","ARG_OF_PERICENTER":"5.4972","RCS_SIZE":"LARGE","PERIOD":"95.920","COUNTRY_CODE":"US","NORAD_CAT_ID":"53488","MEAN_MOTION_DOT":"0.00005129","RA_OF_ASC_NODE":"104.5892"},{"EPHEMERIS_TYPE":"0","ELEMENT_SET_NO":"999","APOAPSIS":"565.007","MEAN_MOTION":"15.01272894","TLE_LINE2":"2 53489  97.6558 104.6511 0002932 357.2048   2.9159 15.01272894 18615","SITE":"AFWTR","TLE_LINE1":"1 53489U 22099AA  22345.87786220  .00007086  00000-0  55553-3 0  9994","TIME_SYSTEM":"UTC","OBJECT_ID":"2022-099AA","CENTER_NAME":"EARTH","INCLINATION":"97.6558","REF_FRAME":"TEME","OBJECT_NAME":"STARLINK-4392","PERIAPSIS":"560.937","ECCENTRICITY":"0.00029320","DECAY_DATE":null,"FILE":"3691889","MEAN_ELEMENT_THEORY":"SGP4","OBJECT_TYPE":"PAYLOAD","SEMIMAJOR_AXIS":"6941.107","CLASSIFICATION_TYPE":"U","GP_ID":"220072024","LAUNCH_DATE":"2022-08-12","EPOCH":"2022-12-11T21:04:07.294080","MEAN_MOTION_DDOT":"0.0000000000000","BSTAR":"0.00055553000000","MEAN_ANOMALY":"2.9159","RCS_SIZE":"LARGE","ARG_OF_PERICENTER":"357.2048","REV_AT_EPOCH":"1861","MEAN_MOTION_DOT":"0.00007086","NORAD_CAT_ID":"53489","PERIOD":"95.919","COUNTRY_CODE":"US","RA_OF_ASC_NODE":"104.6511"},{"RA_OF_ASC_NODE":"104.6510","NORAD_CAT_ID":"53490","MEAN_MOTION_DOT":"0.00012303","COUNTRY_CODE":"US","PERIOD":"95.918","RCS_SIZE":"LARGE","ARG_OF_PERICENTER":"356.8224","REV_AT_EPOCH":"1837","MEAN_ANOMALY":"3.2983","GP_ID":"220099830","MEAN_MOTION_DDOT":"0.0000000000000","LAUNCH_DATE":"2022-08-12","BSTAR":"0.00096003000000","EPOCH":"2022-12-11T21:09:27.673920","OBJECT_TYPE":"PAYLOAD","CLASSIFICATION_TYPE":"U","SEMIMAJOR_AXIS":"6941.059","DECAY_DATE":null,"FILE":"3691993","MEAN_ELEMENT_THEORY":"SGP4","ECCENTRICITY":"0.00025600","PERIAPSIS":"561.147","OBJECT_NAME":"STARLINK-4387","INCLINATION":"97.6545","REF_FRAME":"TEME","CENTER_NAME":"EARTH","TLE_LINE1":"1 53490U 22099AB  22345.88157030  .00012303  00000-0  96003-3 0  9991","TIME_SYSTEM":"UTC","OBJECT_ID":"2022-099AB","TLE_LINE2":"2 53490  97.6545 104.6510 0002560 356.8224   3.2983 15.01288436 18371","SITE":"AFWTR","EPHEMERIS_TYPE":"0","ELEMENT_SET_NO":"999","APOAPSIS":"564.701","MEAN_MOTION":"15.01288436"},{"TIME_SYSTEM":"UTC","OBJECT_ID":"2022-099AC","TLE_LINE1":"1 53491U 22099AC  22345.87416385  .00003110  00000-0  24663-3 0  9991","TLE_LINE2":"2 53491  97.6563 104.6467 0002841   6.5043 353.6218 15.01258477 18615","SITE":"AFWTR","APOAPSIS":"564.989","ELEMENT_SET_NO":"999","MEAN_MOTION":"15.01258477","EPHEMERIS_TYPE":"0","ECCENTRICITY":"0.00028410","PERIAPSIS":"561.045","OBJECT_NAME":"STARLINK-4450","INCLINATION":"97.6563","REF_FRAME":"TEME","CENTER_NAME":"EARTH","BSTAR":"0.00024663000000","LAUNCH_DATE":"2022-08-12","MEAN_MOTION_DDOT":"0.0000000000000","EPOCH":"2022-12-11T20:58:47.756640","GP_ID":"220072532","CLASSIFICATION_TYPE":"U","SEMIMAJOR_AXIS":"6941.152","OBJECT_TYPE":"PAYLOAD","MEAN_ELEMENT_THEORY":"SGP4","DECAY_DATE":null,"FILE":"3691889","RA_OF_ASC_NODE":"104.6467","PERIOD":"95.920","COUNTRY_CODE":"US","NORAD_CAT_ID":"53491","MEAN_MOTION_DOT":"0.00003110","ARG_OF_PERICENTER":"6.5043","REV_AT_EPOCH":"1861","RCS_SIZE":"LARGE","MEAN_ANOMALY":"353.6218"},{"ECCENTRICITY":"0.00018270","PERIAPSIS":"561.642","OBJECT_NAME":"STARLINK-4451","REF_FRAME":"TEME","INCLINATION":"97.6547","CENTER_NAME":"EARTH","OBJECT_ID":"2022-099AD","TIME_SYSTEM":"UTC","TLE_LINE1":"1 53492U 22099AD  22345.87810837  .00019104  00000-0  14866-2 0  9995","TLE_LINE2":"2 53492  97.6547 104.6498 0001827   6.7697 353.3552 15.01293066 18613","SITE":"AFWTR","MEAN_MOTION":"15.01293066","APOAPSIS":"564.178","ELEMENT_SET_NO":"999","EPHEMERIS_TYPE":"0","RA_OF_ASC_NODE":"104.6498","PERIOD":"95.917","COUNTRY_CODE":"US","MEAN_MOTION_DOT":"0.00019104","NORAD_CAT_ID":"53492","REV_AT_EPOCH":"1861","ARG_OF_PERICENTER":"6.7697","RCS_SIZE":"LARGE","MEAN_ANOMALY":"353.3552","MEAN_MOTION_DDOT":"0.0000000000000","LAUNCH_DATE":"2022-08-12","EPOCH":"2022-12-11T21:04:28.563168","BSTAR":"0.00148660000000","GP_ID":"220072540","CLASSIFICATION_TYPE":"U","SEMIMAJOR_AXIS":"6941.045","OBJECT_TYPE":"PAYLOAD","MEAN_ELEMENT_THEORY":"SGP4","FILE":"3691890","DECAY_DATE":null},{"SITE":"AFWTR","TLE_LINE2":"2 53493  97.6558 104.6419 0003309  18.7801 341.3545 15.01283441 18374","MEAN_MOTION":"15.01283441","APOAPSIS":"565.236","ELEMENT_SET_NO":"999","EPHEMERIS_TYPE":"0","OBJECT_ID":"2022-099AE","TIME_SYSTEM":"UTC","TLE_LINE1":"1 53493U 22099AE  22345.87070709  .00010309  00000-0  80546-3 0  9999","REF_FRAME":"TEME","INCLINATION":"97.6558","CENTER_NAME":"EARTH","ECCENTRICITY":"0.00033090","PERIAPSIS":"560.643","OBJECT_NAME":"STARLINK-4361","CLASSIFICATION_TYPE":"U","SEMIMAJOR_AXIS":"6941.075","OBJECT_TYPE":"PAYLOAD","MEAN_ELEMENT_THEORY":"SGP4","FILE":"3691993","DECAY_DATE":null,"BSTAR":"0.00080546000000","LAUNCH_DATE":"2022-08-12","MEAN_MOTION_DDOT":"0.0000000000000","EPOCH":"2022-12-11T20:53:49.092576","GP_ID":"220100583","ARG_OF_PERICENTER":"18.7801","REV_AT_EPOCH":"1837","RCS_SIZE":"LARGE","MEAN_ANOMALY":"341.3545","RA_OF_ASC_NODE":"104.6419","PERIOD":"95.918","COUNTRY_CODE":"US","NORAD_CAT_ID":"53493","MEAN_MOTION_DOT":"0.00010309"}];
